H1 CPF  1  DGF 2022 04 28 11  6181 larets     NONE      
H2   304206 5557    27944 2022 04 28 00 00 00 2022 05 05 00 00 00    30 1 1  0 0 0
H5  0.0650
H9
10 0 59701  61200.000000  0        306800.787       1094621.008       6951873.609
10 0 59701  61230.000000  0        473053.164        939270.932       6965331.620
10 0 59701  61260.000000  0        638141.538        782241.490       6971659.673
10 0 59701  61290.000000  0        801891.209        623697.762       6970851.633
10 0 59701  61320.000000  0        964129.576        463807.108       6962908.646
10 0 59701  61350.000000  0       1124686.321        302738.992       6947839.131
10 0 59701  61380.000000  0       1283393.591        140664.805       6925658.778
10 0 59701  61410.000000  0       1440086.169        -22242.325       6896390.527
10 0 59701  61440.000000  0       1594601.656       -185807.718       6860064.553
10 0 59701  61470.000000  0       1746780.631       -349855.331       6816718.224
10 0 59701  61500.000000  0       1896466.825       -514207.951       6766396.071
10 0 59701  61530.000000  0       2043507.276       -678687.386       6709149.736
10 0 59701  61560.000000  0       2187752.490       -843114.656       6645037.929
10 0 59701  61590.000000  0       2329056.596      -1007310.189       6574126.366
10 0 59701  61620.000000  0       2467277.497      -1171094.023       6496487.708
10 0 59701  61650.000000  0       2602277.014      -1334286.001       6412201.489
10 0 59701  61680.000000  0       2733921.031      -1496705.975       6321354.033
10 0 59701  61710.000000  0       2862079.629      -1658174.009       6224038.370
10 0 59701  61740.000000  0       2986627.217      -1818510.576       6120354.141
10 0 59701  61770.000000  0       3107442.656      -1977536.764       6010407.495
10 0 59701  61800.000000  0       3224409.384      -2135074.473       5894310.988
10 0 59701  61830.000000  0       3337415.524      -2290946.618       5772183.466
10 0 59701  61860.000000  0       3446354.003      -2444977.331       5644149.951
10 0 59701  61890.000000  0       3551122.650      -2596992.162       5510341.512
10 0 59701  61920.000000  0       3651624.301      -2746818.280       5370895.136
10 0 59701  61950.000000  0       3747766.885      -2894284.677       5225953.585
10 0 59701  61980.000000  0       3839463.519      -3039222.360       5075665.255
10 0 59701  62010.000000  0       3926632.583      -3181464.552       4920184.022
10 0 59701  62040.000000  0       4009197.797      -3320846.888       4759669.090
10 0 59701  62070.000000  0       4087088.293      -3457207.606       4594284.822
10 0 59701  62100.000000  0       4160238.677      -3590387.739       4424200.576
10 0 59701  62130.000000  0       4228589.084      -3720231.307       4249590.527
10 0 59701  62160.000000  0       4292085.224      -3846585.500       4070633.491
10 0 59701  62190.000000  0       4350678.431      -3969300.863       3887512.740
10 0 59701  62220.000000  0       4404325.697      -4088231.472       3700415.809
10 0 59701  62250.000000  0       4452989.702      -4203235.117       3509534.310
10 0 59701  62280.000000  0       4496638.841      -4314173.473       3315063.722
10 0 59701  62310.000000  0       4535247.238      -4420912.265       3117203.193
10 0 59701  62340.000000  0       4568794.754      -4523321.434       2916155.327
10 0 59701  62370.000000  0       4597266.992      -4621275.299       2712125.978
10 0 59701  62400.000000  0       4620655.292      -4714652.707       2505324.027
10 0 59701  62430.000000  0       4638956.716      -4803337.187       2295961.170
10 0 59701  62460.000000  0       4652174.036      -4887217.092       2084251.691
10 0 59701  62490.000000  0       4660315.705      -4966185.741       1870412.241
10 0 59701  62520.000000  0       4663395.826      -5040141.552       1654661.607
10 0 59701  62550.000000  0       4661434.115      -5108988.174       1437220.485
10 0 59701  62580.000000  0       4654455.854      -5172634.604       1218311.241
10 0 59701  62610.000000  0       4642491.839      -5230995.307        998157.684
10 0 59701  62640.000000  0       4625578.315      -5283990.321        776984.826
10 0 59701  62670.000000  0       4603756.923      -5331545.361        555018.651
10 0 59701  62700.000000  0       4577074.620      -5373591.914        332485.879
10 0 59701  62730.000000  0       4545583.613      -5410067.333        109613.729
10 0 59701  62760.000000  0       4509341.274      -5440914.922       -113370.323
10 0 59701  62790.000000  0       4468410.052      -5466084.014       -336238.781
10 0 59701  62820.000000  0       4422857.375      -5485530.039       -558764.372
10 0 59701  62850.000000  0       4372755.553      -5499214.586       -780720.286
10 0 59701  62880.000000  0       4318181.665      -5507105.454      -1001880.406
10 0 59701  62910.000000  0       4259217.450      -5509176.700      -1222019.550
10 0 59701  62940.000000  0       4195949.191      -5505408.680      -1440913.695
10 0 59701  62970.000000  0       4128467.595      -5495788.081      -1658340.214
10 0 59701  63000.000000  0       4056867.662      -5480307.944      -1874078.103
10 0 59701  63030.000000  0       3981248.562      -5458967.689      -2087908.209
10 0 59701  63060.000000  0       3901713.499      -5431773.119      -2299613.455
10 0 59701  63090.000000  0       3818369.567      -5398736.427      -2508979.064
10 0 59701  63120.000000  0       3731327.614      -5359876.185      -2715792.778
10 0 59701  63150.000000  0       3640702.088      -5315217.338      -2919845.070
10 0 59701  63180.000000  0       3546610.891      -5264791.181      -3120929.357
10 0 59701  63210.000000  0       3449175.226      -5208635.336      -3318842.205
10 0 59701  63240.000000  0       3348519.437      -5146793.717      -3513383.533
10 0 59701  63270.000000  0       3244770.855      -5079316.493      -3704356.813
10 0 59701  63300.000000  0       3138059.629      -5006260.040      -3891569.267
10 0 59701  63330.000000  0       3028518.571      -4927686.886      -4074832.051
10 0 59701  63360.000000  0       2916282.980      -4843665.652      -4253960.446
10 0 59701  63390.000000  0       2801490.482      -4754270.982      -4428774.035
10 0 59701  63420.000000  0       2684280.858      -4659583.466      -4599096.877
10 0 59701  63450.000000  0       2564795.872      -4559689.566      -4764757.676
10 0 59701  63480.000000  0       2443179.103      -4454681.521      -4925589.944
10 0 59701  63510.000000  0       2319575.773      -4344657.258      -5081432.155
10 0 59701  63540.000000  0       2194132.574      -4229720.297      -5232127.901
10 0 59701  63570.000000  0       2066997.499      -4109979.643      -5377526.033
10 0 59701  63600.000000  0       1938319.666      -3985549.683      -5517480.809
10 0 59701  63630.000000  0       1808249.149      -3856550.071      -5651852.024
10 0 59701  63660.000000  0       1676936.799      -3723105.608      -5780505.147
10 0 59701  63690.000000  0       1544534.079      -3585346.116      -5903311.437
10 0 59701  63720.000000  0       1411192.885      -3443406.314      -6020148.069
10 0 59701  63750.000000  0       1277065.378      -3297425.679      -6130898.242
10 0 59701  63780.000000  0       1142303.813      -3147548.310      -6235451.292
10 0 59701  63810.000000  0       1007060.368      -2993922.780      -6333702.786
10 0 59701  63840.000000  0        871486.973      -2836701.991      -6425554.619
10 0 59701  63870.000000  0        735735.151      -2676043.017      -6510915.104
10 0 59701  63900.000000  0        599955.843      -2512106.947      -6589699.050
10 0 59701  63930.000000  0        464299.255      -2345058.729      -6661827.838
10 0 59701  63960.000000  0        328914.690      -2175067.000      -6727229.494
10 0 59701  63990.000000  0        193950.389      -2002303.919      -6785838.747
10 0 59701  64020.000000  0         59553.379      -1826944.999      -6837597.091
10 0 59701  64050.000000  0        -74130.684      -1649168.928      -6882452.836
10 0 59701  64080.000000  0       -206957.667      -1469157.391      -6920361.152
10 0 59701  64110.000000  0       -338785.112      -1287094.892      -6951284.112
10 0 59701  64140.000000  0       -469472.378      -1103168.569      -6975190.723
10 0 59701  64170.000000  0       -598880.791       -917568.004      -6992056.954
10 0 59701  64200.000000  0       -726873.787       -730485.039      -7001865.763
10 0 59701  64230.000000  0       -853317.051       -542113.579      -7004607.104
10 0 59701  64260.000000  0       -978078.652       -352649.400      -7000277.942
10 0 59701  64290.000000  0      -1101029.181       -162289.951      -6988882.254
10 0 59701  64320.000000  0      -1222041.880         28765.840      -6970431.025
10 0 59701  64350.000000  0      -1340992.768        220317.771      -6944942.240
10 0 59701  64380.000000  0      -1457760.763        412164.565      -6912440.878
10 0 59701  64410.000000  0      -1572227.807        604104.079      -6872958.880
10 0 59701  64440.000000  0      -1684278.980        795933.510      -6826535.133
10 0 59701  64470.000000  0      -1793802.610        987449.601      -6773215.431
10 0 59701  64500.000000  0      -1900690.384       1178448.854      -6713052.434
10 0 59701  64530.000000  0      -2004837.453       1368727.734      -6646105.631
10 0 59701  64560.000000  0      -2106142.535       1558082.878      -6572441.283
10 0 59701  64590.000000  0      -2204508.014       1746311.311      -6492132.375
10 0 59701  64620.000000  0      -2299840.034       1933210.657      -6405258.554
10 0 59701  64650.000000  0      -2392048.592       2118579.358      -6311906.059
10 0 59701  64680.000000  0      -2481047.623       2302216.885      -6212167.643
10 0 59701  64710.000000  0      -2566755.082       2483923.956      -6106142.491
10 0 59701  64740.000000  0      -2649093.014       2663502.745      -5993936.138
10 0 59701  64770.000000  0      -2727987.636       2840757.098      -5875660.373
99
